CCSDS_OMM_VERS = 2.0
CREATION_DATE  = 
ORIGINATOR     = 

OBJECT_NAME    = STARLINK-35794
OBJECT_ID      = 2025-298L
CENTER_NAME    = EARTH
REF_FRAME      = TEME
TIME_SYSTEM    = UTC
MEAN_ELEMENT_THEORY = SGP/SGP4

EPOCH          = 2026-01-12T17:43:47.631072
MEAN_MOTION    = 15.42739617
ECCENTRICITY   = .00034191
INCLINATION    = 70.0006
RA_OF_ASC_NODE = 163.6645
ARG_OF_PERICENTER = 267.4552
MEAN_ANOMALY   = 92.6239

EPHEMERIS_TYPE = 0
CLASSIFICATION_TYPE = U
NORAD_CAT_ID   = 67085
ELEMENT_SET_NO = 999
REV_AT_EPOCH   = 463
BSTAR          = .10629551E-2
MEAN_MOTION_DOT = .46727E-3
MEAN_MOTION_DDOT = 0

CCSDS_OMM_VERS = 2.0
CREATION_DATE  = 
ORIGINATOR     = 

OBJECT_NAME    = STARLINK-35841
OBJECT_ID      = 2025-298M
CENTER_NAME    = EARTH
REF_FRAME      = TEME
TIME_SYSTEM    = UTC
MEAN_ELEMENT_THEORY = SGP/SGP4

EPOCH          = 2026-01-11T09:25:46.364736
MEAN_MOTION    = 15.52059546
ECCENTRICITY   = .0001612
INCLINATION    = 70.0000
RA_OF_ASC_NODE = 166.9856
ARG_OF_PERICENTER = 234.0987
MEAN_ANOMALY   = 126.0050

EPHEMERIS_TYPE = 0
CLASSIFICATION_TYPE = U
NORAD_CAT_ID   = 67086
ELEMENT_SET_NO = 999
REV_AT_EPOCH   = 443
BSTAR          = .78226181E-3
MEAN_MOTION_DOT = .4745E-3
MEAN_MOTION_DDOT = 0

CCSDS_OMM_VERS = 2.0
CREATION_DATE  = 
ORIGINATOR     = 

OBJECT_NAME    = STARLINK-35842
OBJECT_ID      = 2025-298N
CENTER_NAME    = EARTH
REF_FRAME      = TEME
TIME_SYSTEM    = UTC
MEAN_ELEMENT_THEORY = SGP/SGP4

EPOCH          = 2026-01-12T20:19:55.477632
MEAN_MOTION    = 15.42731683
ECCENTRICITY   = .00035957
INCLINATION    = 69.9994
RA_OF_ASC_NODE = 163.6474
ARG_OF_PERICENTER = 279.9542
MEAN_ANOMALY   = 80.1234

EPHEMERIS_TYPE = 0
CLASSIFICATION_TYPE = U
NORAD_CAT_ID   = 67087
ELEMENT_SET_NO = 999
REV_AT_EPOCH   = 464
BSTAR          = .10509149E-2
MEAN_MOTION_DOT = .46181E-3
MEAN_MOTION_DDOT = 0

CCSDS_OMM_VERS = 2.0
CREATION_DATE  = 
ORIGINATOR     = 

OBJECT_NAME    = STARLINK-35882
OBJECT_ID      = 2025-298P
CENTER_NAME    = EARTH
REF_FRAME      = TEME
TIME_SYSTEM    = UTC
MEAN_ELEMENT_THEORY = SGP/SGP4

EPOCH          = 2026-01-12T22:00:01.999584
MEAN_MOTION    = 15.42732429
ECCENTRICITY   = .0003608
INCLINATION    = 69.9991
RA_OF_ASC_NODE = 162.8891
ARG_OF_PERICENTER = 299.0648
MEAN_ANOMALY   = 225.9172

EPHEMERIS_TYPE = 0
CLASSIFICATION_TYPE = U
NORAD_CAT_ID   = 67088
ELEMENT_SET_NO = 999
REV_AT_EPOCH   = 598
BSTAR          = .82714596E-3
MEAN_MOTION_DOT = .36271E-3
MEAN_MOTION_DDOT = 0

CCSDS_OMM_VERS = 2.0
CREATION_DATE  = 
ORIGINATOR     = 

OBJECT_NAME    = STARLINK-35763
OBJECT_ID      = 2025-298Q
CENTER_NAME    = EARTH
REF_FRAME      = TEME
TIME_SYSTEM    = UTC
MEAN_ELEMENT_THEORY = SGP/SGP4

EPOCH          = 2026-01-12T17:23:18.027744
MEAN_MOTION    = 15.42729204
ECCENTRICITY   = .0003861
INCLINATION    = 69.9999
RA_OF_ASC_NODE = 163.6110
ARG_OF_PERICENTER = 280.2000
MEAN_ANOMALY   = 79.8746

EPHEMERIS_TYPE = 0
CLASSIFICATION_TYPE = U
NORAD_CAT_ID   = 67089
ELEMENT_SET_NO = 999
REV_AT_EPOCH   = 463
BSTAR          = .13199486E-2
MEAN_MOTION_DOT = .58129E-3
MEAN_MOTION_DDOT = 0

CCSDS_OMM_VERS = 2.0
CREATION_DATE  = 
ORIGINATOR     = 

OBJECT_NAME    = STARLINK-36060
OBJECT_ID      = 2025-298R
CENTER_NAME    = EARTH
REF_FRAME      = TEME
TIME_SYSTEM    = UTC
MEAN_ELEMENT_THEORY = SGP/SGP4

EPOCH          = 2026-01-12T22:00:01.999584
MEAN_MOTION    = 15.42709195
ECCENTRICITY   = .0003663
INCLINATION    = 69.9990
RA_OF_ASC_NODE = 162.9878
ARG_OF_PERICENTER = 277.8843
MEAN_ANOMALY   = 159.1739

EPHEMERIS_TYPE = 0
CLASSIFICATION_TYPE = U
NORAD_CAT_ID   = 67090
ELEMENT_SET_NO = 999
REV_AT_EPOCH   = 592
BSTAR          = .7998654E-3
MEAN_MOTION_DOT = .35037E-3
MEAN_MOTION_DDOT = 0

CCSDS_OMM_VERS = 2.0
CREATION_DATE  = 
ORIGINATOR     = 

OBJECT_NAME    = STARLINK-36097
OBJECT_ID      = 2025-298S
CENTER_NAME    = EARTH
REF_FRAME      = TEME
TIME_SYSTEM    = UTC
MEAN_ELEMENT_THEORY = SGP/SGP4

EPOCH          = 2026-01-12T20:12:24.553440
MEAN_MOTION    = 15.42723215
ECCENTRICITY   = .00031976
INCLINATION    = 70.0005
RA_OF_ASC_NODE = 163.2150
ARG_OF_PERICENTER = 284.6101
MEAN_ANOMALY   = 75.4726

EPHEMERIS_TYPE = 0
CLASSIFICATION_TYPE = U
NORAD_CAT_ID   = 67091
ELEMENT_SET_NO = 999
REV_AT_EPOCH   = 465
BSTAR          = .10519738E-2
MEAN_MOTION_DOT = .46213E-3
MEAN_MOTION_DDOT = 0

CCSDS_OMM_VERS = 2.0
CREATION_DATE  = 
ORIGINATOR     = 

OBJECT_NAME    = STARLINK-35792
OBJECT_ID      = 2025-298T
CENTER_NAME    = EARTH
REF_FRAME      = TEME
TIME_SYSTEM    = UTC
MEAN_ELEMENT_THEORY = SGP/SGP4

EPOCH          = 2026-01-12T20:18:06.822720
MEAN_MOTION    = 15.42725897
ECCENTRICITY   = .0003527
INCLINATION    = 70.0007
RA_OF_ASC_NODE = 163.2301
ARG_OF_PERICENTER = 268.9818
MEAN_ANOMALY   = 91.0960

EPHEMERIS_TYPE = 0
CLASSIFICATION_TYPE = U
NORAD_CAT_ID   = 67092
ELEMENT_SET_NO = 999
REV_AT_EPOCH   = 465
BSTAR          = .12843967E-2
MEAN_MOTION_DOT = .56539E-3
MEAN_MOTION_DDOT = 0

CCSDS_OMM_VERS = 2.0
CREATION_DATE  = 
ORIGINATOR     = 

OBJECT_NAME    = STARLINK-35784
OBJECT_ID      = 2025-298U
CENTER_NAME    = EARTH
REF_FRAME      = TEME
TIME_SYSTEM    = UTC
MEAN_ELEMENT_THEORY = SGP/SGP4

EPOCH          = 2026-01-12T20:41:42.535104
MEAN_MOTION    = 15.42728517
ECCENTRICITY   = .00036917
INCLINATION    = 69.9995
RA_OF_ASC_NODE = 163.2898
ARG_OF_PERICENTER = 275.4336
MEAN_ANOMALY   = 84.6424

EPHEMERIS_TYPE = 0
CLASSIFICATION_TYPE = U
NORAD_CAT_ID   = 67093
ELEMENT_SET_NO = 999
REV_AT_EPOCH   = 465
BSTAR          = .76171265E-3
MEAN_MOTION_DOT = .33373E-3
MEAN_MOTION_DDOT = 0

CCSDS_OMM_VERS = 2.0
CREATION_DATE  = 
ORIGINATOR     = 

OBJECT_NAME    = STARLINK-36202
OBJECT_ID      = 2025-298V
CENTER_NAME    = EARTH
REF_FRAME      = TEME
TIME_SYSTEM    = UTC
MEAN_ELEMENT_THEORY = SGP/SGP4

EPOCH          = 2026-01-12T20:35:45.506112
MEAN_MOTION    = 15.42691220
ECCENTRICITY   = .00035538
INCLINATION    = 70.0005
RA_OF_ASC_NODE = 163.2745
ARG_OF_PERICENTER = 271.6258
MEAN_ANOMALY   = 88.4516

EPHEMERIS_TYPE = 0
CLASSIFICATION_TYPE = U
NORAD_CAT_ID   = 67094
ELEMENT_SET_NO = 999
REV_AT_EPOCH   = 465
BSTAR          = .63269095E-3
MEAN_MOTION_DOT = .27639E-3
MEAN_MOTION_DDOT = 0

CCSDS_OMM_VERS = 2.0
CREATION_DATE  = 
ORIGINATOR     = 

OBJECT_NAME    = STARLINK-36227
OBJECT_ID      = 2025-298W
CENTER_NAME    = EARTH
REF_FRAME      = TEME
TIME_SYSTEM    = UTC
MEAN_ELEMENT_THEORY = SGP/SGP4

EPOCH          = 2026-01-12T22:00:01.999584
MEAN_MOTION    = 15.42668559
ECCENTRICITY   = .00038717
INCLINATION    = 69.9989
RA_OF_ASC_NODE = 162.9627
ARG_OF_PERICENTER = 272.3658
MEAN_ANOMALY   = 186.7889

EPHEMERIS_TYPE = 0
CLASSIFICATION_TYPE = U
NORAD_CAT_ID   = 67095
ELEMENT_SET_NO = 999
REV_AT_EPOCH   = 592
BSTAR          = .78382083E-3
MEAN_MOTION_DOT = .34282E-3
MEAN_MOTION_DDOT = 0

CCSDS_OMM_VERS = 2.0
CREATION_DATE  = 
ORIGINATOR     = 

OBJECT_NAME    = STARLINK-36228
OBJECT_ID      = 2025-298X
CENTER_NAME    = EARTH
REF_FRAME      = TEME
TIME_SYSTEM    = UTC
MEAN_ELEMENT_THEORY = SGP/SGP4

EPOCH          = 2026-01-12T22:00:01.999584
MEAN_MOTION    = 15.45114788
ECCENTRICITY   = .00035092
INCLINATION    = 69.9997
RA_OF_ASC_NODE = 162.8108
ARG_OF_PERICENTER = 269.7414
MEAN_ANOMALY   = 321.3159

EPHEMERIS_TYPE = 0
CLASSIFICATION_TYPE = U
NORAD_CAT_ID   = 67096
ELEMENT_SET_NO = 999
REV_AT_EPOCH   = 592
BSTAR          = -.5428409E-1
MEAN_MOTION_DOT = -.2307049E-1
MEAN_MOTION_DDOT = 0

