STARLINK-35794          
1 67085U 25298L   26012.73874573  .00046727  00000+0  10630-2 0  9994
2 67085  70.0006 163.6645 0003419 267.4552  92.6239 15.42739617  4639
STARLINK-35841          
1 67086U 25298M   26011.39289774  .00047450  00000+0  78226-3 0  9999
2 67086  70.0000 166.9856 0001612 234.0987 126.0050 15.52059546  4437
STARLINK-35842          
1 67087U 25298N   26012.84716988  .00046181  00000+0  10509-2 0  9992
2 67087  69.9994 163.6474 0003595 279.9542  80.1234 15.42731683  4649
STARLINK-35882          
1 67088U 25298P   26012.91668981  .00036271  00000+0  82715-3 0  9998
2 67088  69.9991 162.8891 0003608 299.0648 225.9172 15.42732429  5983
STARLINK-35763          
1 67089U 25298Q   26012.72451421  .00058129  00000+0  13199-2 0  9992
2 67089  69.9999 163.6110 0003861 280.2000  79.8746 15.42729204  4631
STARLINK-36060          
1 67090U 25298R   26012.91668981  .00035037  00000+0  79987-3 0  9997
2 67090  69.9990 162.9878 0003663 277.8843 159.1739 15.42709195  5928
STARLINK-36097          
1 67091U 25298S   26012.84195085  .00046213  00000+0  10520-2 0  9995
2 67091  70.0005 163.2150 0003197 284.6101  75.4726 15.42723215  4655
STARLINK-35792          
1 67092U 25298T   26012.84591230  .00056539  00000+0  12844-2 0  9991
2 67092  70.0007 163.2301 0003527 268.9818  91.0960 15.42725897  4655
STARLINK-35784          
1 67093U 25298U   26012.86229786  .00033373  00000+0  76171-3 0  9993
2 67093  69.9995 163.2898 0003691 275.4336  84.6424 15.42728517  4655
STARLINK-36202          
1 67094U 25298V   26012.85816558  .00027639  00000+0  63269-3 0  9994
2 67094  70.0005 163.2745 0003553 271.6258  88.4516 15.42691220  4654
STARLINK-36227          
1 67095U 25298W   26012.91668981  .00034282  00000+0  78382-3 0  9991
2 67095  69.9989 162.9627 0003871 272.3658 186.7889 15.42668559  5928
STARLINK-36228          
1 67096U 25298X   26012.91668981 -.02307049  00000+0 -54284-1 0  9993
2 67096  69.9997 162.8108 0003509 269.7414 321.3159 15.45114788  5929
